satname,norad_id,inclination_deg,eccentricity,mean_motion_rev_per_day,perigee_km,apogee_km,l1,l2
STARLINK-1263,45405,53.1608,0.0001377,15.30209401,474.2432971567905,476.13070258635526,1 45405U 20019AX  26080.24685609  .00003119  00000+0  11737-3 0  9991,2 45405  53.1608  75.5871 0001377  85.6219 274.4939 15.30209401331746
STARLINK-1265,45406,53.1594,0.0001431,15.30354455,473.77328472560566,475.7345821107501,1 45406U 20019AY  26080.39211399  .00025735  00000+0  87386-3 0  9990,2 45406  53.1594  74.9844 0001431  86.1632 273.9533 15.30354455331766
STARLINK-1278,45408,53.0435,0.0003353,15.57924924,391.39295668162686,395.93412612469183,1 45408U 20019BA  26080.27040371  .00057552  00000+0  75736-3 0  9997,2 45408  53.0435  74.2237 0003353  72.9034 287.2344 15.57924924331765
STARLINK-1296,45412,53.16,0.0001916,15.30922189,471.7469016964633,474.37228023011903,1 45412U 20019BE  26080.25331216  .00052550  00000+0  17347-2 0  9997,2 45412  53.1600  75.5147 0001916  97.3562 262.7657 15.30922189331744
STARLINK-1298,45413,53.032,0.0001589,16.08958393,248.6490712131881,250.75539852202837,1 45413U 20019BF  26080.21829271  .01056029  66116-3  11795-2 0  9998,2 45413  53.0320 354.1277 0001589 119.5793 240.5399 16.08958393332966
STARLINK-1309,45414,53.0666,0.0006765,15.56931019,391.96212536821076,401.1282703819361,1 45414U 20019BG  26080.25406278  .00083167  00000+0  11284-2 0  9992,2 45414  53.0666  67.6375 0006765  67.5742 292.5985 15.56931019331833
STARLINK-1316,45415,53.1612,0.0001664,15.30884561,472.0317975759399,474.31191316300647,1 45415U 20019BH  26080.23330495  .00018717  00000+0  62908-3 0  9997,2 45415  53.1612  75.6564 0001664 124.8595 235.2563 15.30884561331760
STARLINK-1286,45417,53.0482,0.0003722,15.51688112,409.2697850364484,414.32421190491004,1 45417U 20019BK  26080.39593784  .00053468  00000+0  88485-3 0  9998,2 45417  53.0482  74.4356 0003722  85.2391 274.9042 15.51688112332044
STARLINK-1308,45419,53.0538,0.0005171,15.52803609,405.0353983192681,412.05418462801026,1 45419U 20019BM  26080.34021862  .00098608  00000+0  15524-2 0  9996,2 45419  53.0538  96.0609 0005171  58.1741 301.9771 15.52803609331485
STARLINK-1329,45531,53.0497,7.83e-05,15.59130649,389.6419011179869,390.70181828541627,1 45531U 20025A   26080.44843592  .00397728  00000+0  47571-2 0  9993,2 45531  53.0497  24.2841 0000783 308.9597  51.1345 15.59130649327282
STARLINK-1338,45532,53.0495,0.0004804,15.56688479,393.9939709127111,400.50376165303624,1 45532U 20025B   26080.13607049  .00057586  00000+0  79338-3 0  9997,2 45532  53.0495  29.3117 0004804  53.2700 306.8752 15.56688479327184
STARLINK-1350,45535,53.0742,0.0002386,15.36428807,455.0490473328082,458.3106219262945,1 45535U 20025E   26080.43563997  .00015258  00000+0  43298-3 0  9992,2 45535  53.0742 337.9680 0002386  94.2541 265.8734 15.36428807327961
STARLINK-1362,45538,53.1632,0.0001255,15.29738845,475.73207248833023,477.45260955292724,1 45538U 20025H   26080.60844500 -.00167254  00000+0 -58452-2 0  9999,2 45538  53.1632  45.6348 0001255 111.9643 248.1491 15.29738845327008
STARLINK-1368,45540,53.1614,0.0001152,15.3019587,474.4378933036405,476.0169084616027,1 45540U 20025K   26080.22622666 -.00000122  00000+0  79968-5 0  9994,2 45540  53.1614  47.7412 0001152  89.3105 270.8028 15.30195870326939
STARLINK-1371,45542,53.0521,0.0002489,15.49008299,417.93391993379737,421.3178462970127,1 45542U 20025M   26080.56210803  .00073525  00000+0  13314-2 0  9995,2 45542  53.0521  32.6186 0002489  80.9112 279.2177 15.49008299327170
STARLINK-1372,45543,53.1618,0.0001259,15.30198989,474.35525067916205,476.08092549034154,1 45543U 20025N   26080.59488487  .00002252  00000+0  88140-4 0  9994,2 45543  53.1618  45.7246 0001259  93.1660 266.9485 15.30198989326090
STARLINK-1373,45544,53.0499,0.0004768,15.52753961,405.45349747086766,411.92541517961945,1 45544U 20025P   26080.16077416  .00077883  00000+0  12332-2 0  9994,2 45544  53.0499  33.7716 0004768  54.2665 305.8787 15.52753961327121
STARLINK-1327,45555,53.0469,0.000642,15.56267061,394.1213556502753,402.8225215274233,1 45555U 20025AA  26080.09157550  .00096762  00000+0  13424-2 0  9996,2 45555  53.0469  11.4840 0006420 107.2470 252.9244 15.56267061327429
STARLINK-1356,45564,53.0517,0.0005834,15.46610171,422.68109516464756,430.62092181295156,1 45564U 20025AK  26080.11040242  .00086178  00000+0  16911-2 0  9992,2 45564  53.0517  19.4016 0005834  80.2835 279.8830 15.46610171327319
STARLINK-1357,45565,53.0517,0.0004467,15.57947967,390.57183505920966,396.62170200801665,1 45565U 20025AL  26080.01316041  .00100180  00000+0  13052-2 0  9998,2 45565  53.0517 343.1209 0004467 150.7621 209.3641 15.57947967327820
STARLINK-1361,45567,53.0506,0.0007423,15.49649985,412.7046018829269,422.7937745179288,1 45567U 20025AN  26080.49878630  .00070322  00000+0  12448-2 0  9991,2 45567  53.0506  17.3500 0007423  80.1434 280.0412 15.49649985327380
STARLINK-1363,45568,53.0429,0.0007043,15.79488271,327.1636666135355,336.61540999539193,1 45568U 20025AP  26080.41298032  .00164007  00000+0  87098-3 0  9994,2 45568  53.0429 339.0425 0007043 103.5617 256.6188 15.79488271327905
STARLINK-1366,45569,53.0423,0.0007279,15.78228255,330.57364165979925,340.3472968555452,1 45569U 20025AQ  26079.92895838  .00106654  00000+0  60478-3 0  9993,2 45569  53.0423 342.3289 0007279  99.9297 260.2545 15.78228255327819
STARLINK-1376,45570,53.1627,0.0001616,15.30937198,471.9076662560883,474.1219585218523,1 45570U 20025AR  26080.53927742  .00013285  00000+0  44957-3 0  9995,2 45570  53.1627  22.7418 0001616 114.9202 245.1967 15.30937198327310
STARLINK-1320,45572,53.0469,0.000607,15.70456983,353.5014320258615,361.6786046261095,1 45572U 20025AT  26080.58597490  .00093275  00000+0  74204-3 0  9990,2 45572  53.0469 286.9431 0006070  90.4419 269.7294 15.70456983328678
STARLINK-1321,45573,53.0506,0.0004439,15.50399532,412.5429574994969,418.5744005233237,1 45573U 20025AU  26080.49756314  .00110172  00000+0  18865-2 0  9999,2 45573  53.0506   1.8727 0004439 103.1997 256.9507 15.50399532327299
STARLINK-1331,45578,53.0535,0.0005703,15.50295869,411.986905792839,419.73614050834385,1 45578U 20025AZ  26080.50564862  .00062653  00000+0  10864-2 0  9992,2 45578  53.0535   8.5208 0005703 125.3309 234.8233 15.50295869327516
STARLINK-1333,45580,53.1627,0.0001174,15.30214358,474.3676208545776,475.97677785458654,1 45580U 20025BB  26080.12344353 -.00001808  00000+0 -48917-4 0  9993,2 45580  53.1627  24.7004 0001174  98.7578 261.3556 15.30214358327251
STARLINK-1335,45581,53.1557,0.0001184,15.29377301,476.8608735762291,478.4843292898486,1 45581U 20025BC  26080.53146965  .00003641  00000+0  13835-3 0  9993,2 45581  53.1557  20.1144 0001184  94.5255 265.5881 15.29377301327349
STARLINK-1337,45582,53.0534,0.0005229,15.60009651,384.09135720973427,391.16699547695316,1 45582U 20025BD  26080.60855479  .00096943  00000+0  11688-2 0  9999,2 45582  53.0534   3.7907 0005229 126.2935 233.8561 15.60009651327573
STARLINK-1347,45586,53.0449,0.0004928,15.56444455,394.61776543542874,401.29628370604587,1 45586U 20025BH  26079.99113558  .00099274  00000+0  13680-2 0  9992,2 45586  53.0449 334.8135 0004928 110.7476 249.4063 15.56444455327925
STARLINK-1364,45589,53.0506,0.0007899,15.51578046,406.75448218256133,417.4817271969496,1 45589U 20025BL  26080.03190657  .00089992  00000+0  14817-2 0  9996,2 45589  53.0506   8.7289 0007899 105.3045 254.8838 15.51578046327458
STARLINK-1365,45590,53.0522,0.0004442,15.47109964,422.1633718096464,428.2074434365795,1 45590U 20025BM  26080.17348969  .00079275  00000+0  15314-2 0  9990,2 45590  53.0522  38.7456 0004442  87.8539 272.2977 15.47109964327069
STARLINK-1443,45660,53.1369,0.0003431,15.26155742,484.96161586398375,489.6726905038995,1 45660U 20035D   26080.50652545  .00039381  00000+0  15095-2 0  9994,2 45660  53.1369  10.3681 0003431 100.9452 259.1933 15.26155742320567
STARLINK-1446,45663,53.0243,7.87e-05,15.43323679,435.7717705937457,436.8443642473567,1 45663U 20035G   26079.88609304  .00016115  00000+0  36455-3 0  9995,2 45663  53.0243 306.1733 0000787 345.5432  14.5550 15.43323679321407
STARLINK-1448,45665,53.0509,0.0007859,15.54724421,397.6245625597503,408.2830811135118,1 45665U 20035J   26080.48741636  .00086245  00000+0  12683-2 0  9997,2 45665  53.0509 355.8153 0007859 124.5373 235.6380 15.54724421320753
STARLINK-1451,45668,53.053,0.000189,15.10684607,532.8044863214109,535.4173160280552,1 45668U 20035M   26080.52524822  .00017068  00000+0  10343-2 0  9999,2 45668  53.0530  12.5975 0001890  76.2371 283.8830 15.10684607320533
STARLINK-1452,45669,53.0311,0.0006563,15.46905385,421.3198087433111,430.2506370530873,1 45669U 20035N   26080.38096255  .00058786  00000+0  11484-2 0  9997,2 45669  53.0311 325.9415 0006563 101.8395 258.3348 15.46905385321174
STARLINK-1453,45670,53.0468,0.0005263,15.5490857,398.8498118025973,405.9870244357089,1 45670U 20035P   26079.96242577  .00101938  00000+0  14858-2 0  9997,2 45670  53.0468 318.9221 0005263  97.8042 262.3566 15.54908570321125
STARLINK-1454,45671,53.0504,0.0008263,15.53412586,401.1646055629926,412.37734448251376,1 45671U 20035Q   26080.46869396  .00074616  00000+0  11534-2 0  9999,2 45671  53.0504 356.1421 0008263 106.3142 253.8777 15.53412586320745
STARLINK-1456,45673,53.0502,0.0002556,15.51784182,409.78131966655656,413.25219066619775,1 45673U 20035S   26080.47616096  .00127939  00000+0  20799-2 0  9999,2 45673  53.0502 349.6943 0002556 151.5088 208.6060 15.51784182320858
STARLINK-1457,45674,53.0463,0.0007375,15.81605771,320.9549214572362,330.84337477570807,1 45674U 20035T   26079.98866139  .00140603  00000+0  67979-3 0  9994,2 45674  53.0463 325.7166 0007375 115.7931 244.3852 15.81605771321115
STARLINK-1458,45675,53.0532,0.0006943,15.44282938,428.75652240538875,438.21514187009507,1 45675U 20035U   26080.07210453  .00061987  00000+0  13234-2 0  9990,2 45675  53.0532   1.3931 0006943 116.8773 243.2942 15.44282938320613
